{
  "type": "FeatureCollection",
  "features": [
    {
      "type": "Feature",
      "properties": {
        "norad_id": 66393,
        "name": "STARLINK-35652",
        "group": "last-30-days",
        "lat": -25.69238431574043,
        "lon": 145.98739257607616,
        "alt_km": 422.1893823631417,
        "timestamp": "2025-12-04T03:47:53.334863+00:00",
        "meta_object_name": "STARLINK-35652",
        "meta_object_id": "2025-257P",
        "meta_epoch": "2025-12-03T08:18:23.186016",
        "meta_mean_motion": 15.49329559,
        "meta_eccentricity": 0.0001485,
        "meta_inclination": 53.1589,
        "meta_ra_of_asc_node": 308.7286,
        "meta_arg_of_pericenter": 104.9265,
        "meta_mean_anomaly": 255.1908,
        "meta_ephemeris_type": 0,
        "meta_classification_type": "U",
        "meta_norad_cat_id": 66393,
        "meta_element_set_no": 999,
        "meta_rev_at_epoch": 492,
        "meta_bstar": 0.0011247,
        "meta_mean_motion_dot": 0.00062649,
        "meta_mean_motion_ddot": 0,
        "tle_line1": "1 66393U 25257P   25337.34610169  .00062649  00000+0  11247-2 0  9991",
        "tle_line2": "2 66393  53.1589 308.7286 0001485 104.9265 255.1908 15.49329559  4926"
      },
      "geometry": {
        "type": "Point",
        "coordinates": [
          145.98739257607616,
          -25.69238431574043
        ]
      }
    },
    {
      "type": "Feature",
      "properties": {
        "norad_id": 66394,
        "name": "STARLINK-35672",
        "group": "last-30-days",
        "lat": -28.565726639660884,
        "lon": 148.92708619605483,
        "alt_km": 422.7547993054459,
        "timestamp": "2025-12-04T03:47:53.334873+00:00",
        "meta_object_name": "STARLINK-35672",
        "meta_object_id": "2025-257Q",
        "meta_epoch": "2025-12-03T09:50:17.398176",
        "meta_mean_motion": 15.4934031,
        "meta_eccentricity": 0.0001939,
        "meta_inclination": 53.1588,
        "meta_ra_of_asc_node": 308.4152,
        "meta_arg_of_pericenter": 89.2215,
        "meta_mean_anomaly": 270.9016,
        "meta_ephemeris_type": 0,
        "meta_classification_type": "U",
        "meta_norad_cat_id": 66394,
        "meta_element_set_no": 999,
        "meta_rev_at_epoch": 493,
        "meta_bstar": 0.0016114,
        "meta_mean_motion_dot": 0.00090316,
        "meta_mean_motion_ddot": 0,
        "tle_line1": "1 66394U 25257Q   25337.40992359  .00090316  00000+0  16114-2 0  9993",
        "tle_line2": "2 66394  53.1588 308.4152 0001939  89.2215 270.9016 15.49340310  4933"
      },
      "geometry": {
        "type": "Point",
        "coordinates": [
          148.92708619605483,
          -28.565726639660884
        ]
      }
    },
    {
      "type": "Feature",
      "properties": {
        "norad_id": 66395,
        "name": "STARLINK-35681",
        "group": "last-30-days",
        "lat": -29.87384611704941,
        "lon": 150.34205732474737,
        "alt_km": 422.7739480676264,
        "timestamp": "2025-12-04T03:47:53.334885+00:00",
        "meta_object_name": "STARLINK-35681",
        "meta_object_id": "2025-257R",
        "meta_epoch": "2025-12-03T09:49:47.662752",
        "meta_mean_motion": 15.49325467,
        "meta_eccentricity": 0.0001507,
        "meta_inclination": 53.159,
        "meta_ra_of_asc_node": 308.4132,
        "meta_arg_of_pericenter": 97.3253,
        "meta_mean_anomaly": 262.7928,
        "meta_ephemeris_type": 0,
        "meta_classification_type": "U",
        "meta_norad_cat_id": 66395,
        "meta_element_set_no": 999,
        "meta_rev_at_epoch": 486,
        "meta_bstar": 0.00099187,
        "meta_mean_motion_dot": 0.00055138,
        "meta_mean_motion_ddot": 0,
        "tle_line1": "1 66395U 25257R   25337.40957943  .00055138  00000+0  99187-3 0  9999",
        "tle_line2": "2 66395  53.1590 308.4132 0001507  97.3253 262.7928 15.49325467  4867"
      },
      "geometry": {
        "type": "Point",
        "coordinates": [
          150.34205732474737,
          -29.87384611704941
        ]
      }
    },
    {
      "type": "Feature",
      "properties": {
        "norad_id": 66396,
        "name": "STARLINK-35669",
        "group": "last-30-days",
        "lat": -31.244815506777062,
        "lon": 151.88377503085545,
        "alt_km": 422.79509532447355,
        "timestamp": "2025-12-04T03:47:53.334895+00:00",
        "meta_object_name": "STARLINK-35669",
        "meta_object_id": "2025-257S",
        "meta_epoch": "2025-12-03T09:49:17.918688",
        "meta_mean_motion": 15.49325911,
        "meta_eccentricity": 0.0001407,
        "meta_inclination": 53.1588,
        "meta_ra_of_asc_node": 308.4101,
        "meta_arg_of_pericenter": 102.3886,
        "meta_mean_anomaly": 257.7281,
        "meta_ephemeris_type": 0,
        "meta_classification_type": "U",
        "meta_norad_cat_id": 66396,
        "meta_element_set_no": 999,
        "meta_rev_at_epoch": 493,
        "meta_bstar": 0.0009271,
        "meta_mean_motion_dot": 0.00051484,
        "meta_mean_motion_ddot": 0,
        "tle_line1": "1 66396U 25257S   25337.40923517  .00051484  00000+0  92710-3 0  9995",
        "tle_line2": "2 66396  53.1588 308.4101 0001407 102.3886 257.7281 15.49325911  4937"
      },
      "geometry": {
        "type": "Point",
        "coordinates": [
          151.88377503085545,
          -31.244815506777062
        ]
      }
    },
    {
      "type": "Feature",
      "properties": {
        "norad_id": 66397,
        "name": "STARLINK-35510",
        "group": "last-30-days",
        "lat": -32.658637899263375,
        "lon": 153.54645786669147,
        "alt_km": 422.9011199759052,
        "timestamp": "2025-12-04T03:47:53.334906+00:00",
        "meta_object_name": "STARLINK-35510",
        "meta_object_id": "2025-257T",
        "meta_epoch": "2025-12-03T09:48:48.187584",
        "meta_mean_motion": 15.4934023,
        "meta_eccentricity": 0.0001381,
        "meta_inclination": 53.1588,
        "meta_ra_of_asc_node": 308.4085,
        "meta_arg_of_pericenter": 92.3379,
        "meta_mean_anomaly": 267.7789,
        "meta_ephemeris_type": 0,
        "meta_classification_type": "U",
        "meta_norad_cat_id": 66397,
        "meta_element_set_no": 999,
        "meta_rev_at_epoch": 493,
        "meta_bstar": 0.0013191,
        "meta_mean_motion_dot": 0.0007369,
        "meta_mean_motion_ddot": 0,
        "tle_line1": "1 66397U 25257T   25337.40889106  .00073690  00000+0  13191-2 0  9999",
        "tle_line2": "2 66397  53.1588 308.4085 0001381  92.3379 267.7789 15.49340230  4930"
      },
      "geometry": {
        "type": "Point",
        "coordinates": [
          153.54645786669147,
          -32.658637899263375
        ]
      }
    },
    {
      "type": "Feature",
      "properties": {
        "norad_id": 66398,
        "name": "STARLINK-35642",
        "group": "last-30-days",
        "lat": -34.01559896477377,
        "lon": 155.21780135515607,
        "alt_km": 423.0117477577769,
        "timestamp": "2025-12-04T03:47:53.334916+00:00",
        "meta_object_name": "STARLINK-35642",
        "meta_object_id": "2025-257U",
        "meta_epoch": "2025-12-03T09:48:18.698400",
        "meta_mean_motion": 15.49340819,
        "meta_eccentricity": 0.0001523,
        "meta_inclination": 53.1589,
        "meta_ra_of_asc_node": 308.4057,
        "meta_arg_of_pericenter": 89.0323,
        "meta_mean_anomaly": 271.0861,
        "meta_ephemeris_type": 0,
        "meta_classification_type": "U",
        "meta_norad_cat_id": 66398,
        "meta_element_set_no": 999,
        "meta_rev_at_epoch": 493,
        "meta_bstar": 0.0017056,
        "meta_mean_motion_dot": 0.00095686,
        "meta_mean_motion_ddot": 0,
        "tle_line1": "1 66398U 25257U   25337.40854975  .00095686  00000+0  17056-2 0  9999",
        "tle_line2": "2 66398  53.1589 308.4057 0001523  89.0323 271.0861 15.49340819  4933"
      },
      "geometry": {
        "type": "Point",
        "coordinates": [
          155.21780135515607,
          -34.01559896477377
        ]
      }
    },
    {
      "type": "Feature",
      "properties": {
        "norad_id": 66399,
        "name": "STARLINK-35657",
        "group": "last-30-days",
        "lat": -35.33090995927441,
        "lon": 156.91969440899462,
        "alt_km": 423.0886836225909,
        "timestamp": "2025-12-04T03:47:53.334926+00:00",
        "meta_object_name": "STARLINK-35657",
        "meta_object_id": "2025-257V",
        "meta_epoch": "2025-12-03T09:47:49.011360",
        "meta_mean_motion": 15.49341076,
        "meta_eccentricity": 0.000152,
        "meta_inclination": 53.1589,
        "meta_ra_of_asc_node": 308.4035,
        "meta_arg_of_pericenter": 89.0998,
        "meta_mean_anomaly": 271.0185,
        "meta_ephemeris_type": 0,
        "meta_classification_type": "U",
        "meta_norad_cat_id": 66399,
        "meta_element_set_no": 999,
        "meta_rev_at_epoch": 493,
        "meta_bstar": 0.0017712,
        "meta_mean_motion_dot": 0.00099437,
        "meta_mean_motion_ddot": 0,
        "tle_line1": "1 66399U 25257V   25337.40820615  .00099437  00000+0  17712-2 0  9991",
        "tle_line2": "2 66399  53.1589 308.4035 0001520  89.0998 271.0185 15.49341076  4930"
      },
      "geometry": {
        "type": "Point",
        "coordinates": [
          156.91969440899462,
          -35.33090995927441
        ]
      }
    }
  ]
}